0 BREEZE-M DEB
1 38651U 08011DA  13281.16531397 -.00000873  00000-0 -22547-1 0  3280
2 38651 048.7904 186.3361 6429244 249.9916 337.5976 03.05979701 33036
0 BREEZE-M DEB
1 38651U 08011DA  13283.42967485 -.00000971  00000-0 -24670-1 0  3291
2 38651 048.7891 185.5447 6429462 250.6833 311.8356 03.05977900 33100
0 BREEZE-M DEB
1 38651U 08011DA  13292.27191560  .00000741  00000-0  16408-1 0  3313
2 38651 048.7864 182.4562 6430673 253.3916 331.5590 03.05948980 33376
0 BREEZE-M DEB
1 38651U 08011DA  13292.90448000  .00000787  00000-0  17386-1 0  3324
2 38651 048.7863 182.2349 6430935 253.5863 308.2934 03.05949190 33399
